{
  "type": "FeatureCollection",
  "features": [
    {
      "type": "Feature",
      "properties": {
        "norad_id": 33822,
        "name": "COSMOS 2251 DEB",
        "group": "cosmos-2251-debris",
        "lat": 42.2147860400451,
        "lon": -17.984014938647825,
        "alt_km": 834.5084791468007,
        "timestamp": "2025-12-22T04:03:39.561166+00:00",
        "meta_object_name": "COSMOS 2251 DEB",
        "meta_object_id": "1993-036BP",
        "meta_epoch": "2025-12-21T14:08:53.962080",
        "meta_mean_motion": 14.13110302,
        "meta_eccentricity": 0.0152851,
        "meta_inclination": 74.0677,
        "meta_ra_of_asc_node": 178.0584,
        "meta_arg_of_pericenter": 222.2199,
        "meta_mean_anomaly": 207.2604,
        "meta_ephemeris_type": 0,
        "meta_classification_type": "U",
        "meta_norad_cat_id": 33822,
        "meta_element_set_no": 999,
        "meta_rev_at_epoch": 86179,
        "meta_bstar": 0.0010503,
        "meta_mean_motion_dot": 2.169e-05,
        "meta_mean_motion_ddot": 0,
        "tle_line1": "1 33822U 93036BP  25355.58951345  .00002169  00000+0  10503-2 0  9997",
        "tle_line2": "2 33822  74.0677 178.0584 0152851 222.2199 207.2604 14.13110302861791"
      },
      "geometry": {
        "type": "Point",
        "coordinates": [
          -17.984014938647825,
          42.2147860400451
        ]
      }
    },
    {
      "type": "Feature",
      "properties": {
        "norad_id": 33823,
        "name": "COSMOS 2251 DEB",
        "group": "cosmos-2251-debris",
        "lat": -17.86658090752175,
        "lon": -41.82154620599858,
        "alt_km": 818.73077763323,
        "timestamp": "2025-12-22T04:03:39.561177+00:00",
        "meta_object_name": "COSMOS 2251 DEB",
        "meta_object_id": "1993-036BQ",
        "meta_epoch": "2025-12-21T03:58:04.827360",
        "meta_mean_motion": 13.98969204,
        "meta_eccentricity": 0.02094175,
        "meta_inclination": 73.8097,
        "meta_ra_of_asc_node": 134.5636,
        "meta_arg_of_pericenter": 258.3721,
        "meta_mean_anomaly": 288.2927,
        "meta_ephemeris_type": 0,
        "meta_classification_type": "U",
        "meta_norad_cat_id": 33823,
        "meta_element_set_no": 999,
        "meta_rev_at_epoch": 85727,
        "meta_bstar": 0.0005548311,
        "meta_mean_motion_dot": 9.4e-06,
        "meta_mean_motion_ddot": 0,
        "tle_line1": "1 33823U 93036BQ  25355.16533365  .00000940  00000+0  55483-3 0  9992",
        "tle_line2": "2 33823  73.8097 134.5636 0209417 258.3721 288.2927 13.98969204857272"
      },
      "geometry": {
        "type": "Point",
        "coordinates": [
          -41.82154620599858,
          -17.86658090752175
        ]
      }
    },
    {
      "type": "Feature",
      "properties": {
        "norad_id": 33825,
        "name": "COSMOS 2251 DEB",
        "group": "cosmos-2251-debris",
        "lat": 72.90685875985854,
        "lon": 120.37757621607072,
        "alt_km": 685.3415479839969,
        "timestamp": "2025-12-22T04:03:39.561187+00:00",
        "meta_object_name": "COSMOS 2251 DEB",
        "meta_object_id": "1993-036BS",
        "meta_epoch": "2025-12-21T05:05:21.226272",
        "meta_mean_motion": 14.69831911,
        "meta_eccentricity": 0.00849717,
        "meta_inclination": 73.9844,
        "meta_ra_of_asc_node": 11.3147,
        "meta_arg_of_pericenter": 336.3536,
        "meta_mean_anomaly": 96.2177,
        "meta_ephemeris_type": 0,
        "meta_classification_type": "U",
        "meta_norad_cat_id": 33825,
        "meta_element_set_no": 999,
        "meta_rev_at_epoch": 89004,
        "meta_bstar": 0.00056068801,
        "meta_mean_motion_dot": 3.507e-05,
        "meta_mean_motion_ddot": 0,
        "tle_line1": "1 33825U 93036BS  25355.21205123  .00003507  00000+0  56069-3 0  9991",
        "tle_line2": "2 33825  73.9844  11.3147 0084971 336.3536  96.2177 14.69831911890049"
      },
      "geometry": {
        "type": "Point",
        "coordinates": [
          120.37757621607072,
          72.90685875985854
        ]
      }
    },
    {
      "type": "Feature",
      "properties": {
        "norad_id": 33826,
        "name": "COSMOS 2251 DEB",
        "group": "cosmos-2251-debris",
        "lat": 73.82675542519748,
        "lon": 132.0156443647793,
        "alt_km": 657.1360051933152,
        "timestamp": "2025-12-22T04:03:39.561197+00:00",
        "meta_object_name": "COSMOS 2251 DEB",
        "meta_object_id": "1993-036BT",
        "meta_epoch": "2025-12-21T20:11:12.793056",
        "meta_mean_motion": 14.51760577,
        "meta_eccentricity": 0.0082576,
        "meta_inclination": 74.0637,
        "meta_ra_of_asc_node": 32.7645,
        "meta_arg_of_pericenter": 74.0518,
        "meta_mean_anomaly": 104.3709,
        "meta_ephemeris_type": 0,
        "meta_classification_type": "U",
        "meta_norad_cat_id": 33826,
        "meta_element_set_no": 999,
        "meta_rev_at_epoch": 87901,
        "meta_bstar": 0.00042139,
        "meta_mean_motion_dot": 1.742e-05,
        "meta_mean_motion_ddot": 0,
        "tle_line1": "1 33826U 93036BT  25355.84112029  .00001742  00000+0  42139-3 0  9995",
        "tle_line2": "2 33826  74.0637  32.7645 0082576  74.0518 104.3709 14.51760577879013"
      },
      "geometry": {
        "type": "Point",
        "coordinates": [
          132.0156443647793,
          73.82675542519748
        ]
      }
    },
    {
      "type": "Feature",
      "properties": {
        "norad_id": 33828,
        "name": "COSMOS 2251 DEB",
        "group": "cosmos-2251-debris",
        "lat": 72.06220996089297,
        "lon": -21.53802337244491,
        "alt_km": 757.2679122544241,
        "timestamp": "2025-12-22T04:03:39.561207+00:00",
        "meta_object_name": "COSMOS 2251 DEB",
        "meta_object_id": "1993-036BV",
        "meta_epoch": "2025-12-21T17:57:21.416256",
        "meta_mean_motion": 14.44356959,
        "meta_eccentricity": 0.0029516,
        "meta_inclination": 74.0453,
        "meta_ra_of_asc_node": 221.3386,
        "meta_arg_of_pericenter": 292.8874,
        "meta_mean_anomaly": 136.8993,
        "meta_ephemeris_type": 0,
        "meta_classification_type": "U",
        "meta_norad_cat_id": 33828,
        "meta_element_set_no": 999,
        "meta_rev_at_epoch": 88443,
        "meta_bstar": 0.00030594,
        "meta_mean_motion_dot": 1.032e-05,
        "meta_mean_motion_ddot": 0,
        "tle_line1": "1 33828U 93036BV  25355.74816454  .00001032  00000+0  30594-3 0  9993",
        "tle_line2": "2 33828  74.0453 221.3386 0029516 292.8874 136.8993 14.44356959884433"
      },
      "geometry": {
        "type": "Point",
        "coordinates": [
          -21.53802337244491,
          72.06220996089297
        ]
      }
    },
    {
      "type": "Feature",
      "properties": {
        "norad_id": 33830,
        "name": "COSMOS 2251 DEB",
        "group": "cosmos-2251-debris",
        "lat": -0.9780496791759712,
        "lon": -148.40199637424752,
        "alt_km": 615.4725190245945,
        "timestamp": "2025-12-22T04:03:39.561218+00:00",
        "meta_object_name": "COSMOS 2251 DEB",
        "meta_object_id": "1993-036BX",
        "meta_epoch": "2025-12-21T09:21:26.203968",
        "meta_mean_motion": 14.76982881,
        "meta_eccentricity": 0.00426339,
        "meta_inclination": 74.0309,
        "meta_ra_of_asc_node": 213.4057,
        "meta_arg_of_pericenter": 331.681,
        "meta_mean_anomaly": 205.1447,
        "meta_ephemeris_type": 0,
        "meta_classification_type": "U",
        "meta_norad_cat_id": 33830,
        "meta_element_set_no": 999,
        "meta_rev_at_epoch": 89599,
        "meta_bstar": 0.00051766238,
        "meta_mean_motion_dot": 3.669e-05,
        "meta_mean_motion_ddot": 0,
        "tle_line1": "1 33830U 93036BX  25355.38988662  .00003669  00000+0  51766-3 0  9999",
        "tle_line2": "2 33830  74.0309 213.4057 0042633 331.6810 205.1447 14.76982881895991"
      },
      "geometry": {
        "type": "Point",
        "coordinates": [
          -148.40199637424752,
          -0.9780496791759712
        ]
      }
    },
    {
      "type": "Feature",
      "properties": {
        "norad_id": 33832,
        "name": "COSMOS 2251 DEB",
        "group": "cosmos-2251-debris",
        "lat": -36.32209614955347,
        "lon": 24.11681143485304,
        "alt_km": 679.5618680144635,
        "timestamp": "2025-12-22T04:03:39.561228+00:00",
        "meta_object_name": "COSMOS 2251 DEB",
        "meta_object_id": "1993-036BZ",
        "meta_epoch": "2025-12-21T15:52:06.160224",
        "meta_mean_motion": 14.60739909,
        "meta_eccentricity": 0.0024358,
        "meta_inclination": 74.0528,
        "meta_ra_of_asc_node": 192.9512,
        "meta_arg_of_pericenter": 222.3435,
        "meta_mean_anomaly": 205.1652,
        "meta_ephemeris_type": 0,
        "meta_classification_type": "U",
        "meta_norad_cat_id": 33832,
        "meta_element_set_no": 999,
        "meta_rev_at_epoch": 88555,
        "meta_bstar": 0.00095034,
        "meta_mean_motion_dot": 4.627e-05,
        "meta_mean_motion_ddot": 0,
        "tle_line1": "1 33832U 93036BZ  25355.66118241  .00004627  00000+0  95034-3 0  9991",
        "tle_line2": "2 33832  74.0528 192.9512 0024358 222.3435 205.1652 14.60739909885559"
      },
      "geometry": {
        "type": "Point",
        "coordinates": [
          24.11681143485304,
          -36.32209614955347
        ]
      }
    }
  ]
}